STARLINK-35816          
1 66499U 25263Q   25343.83335647 -.00384235  00000+0 -68386-2 0  9997
2 66499  43.0007 142.0991 0001570 269.7148 357.8879 15.50707480  5162
STARLINK-35894          
1 66500U 25263R   25343.83335647 -.01787813  00000+0 -35512-1 0  9994
2 66500  43.0007 142.2145 0001200 285.0380 295.4263 15.49632591  5169
STARLINK-35897          
1 66501U 25263S   25343.83335647 -.00019234  00000+0 -32288-3 0  9998
2 66501  43.0006 142.0944 0001555 279.1513 350.3982 15.50575169  5167
STARLINK-35922          
1 66502U 25263T   25343.83335647  .00024087  00000+0  41549-3 0  9999
2 66502  43.0006 142.0793 0001604 275.1490   0.1540 15.50554082  5166
STARLINK-35917          
1 66503U 25263U   25343.58335648 -.00068729  00000+0 -11756-2 0  9992
2 66503  43.0005 143.5315 0001444 273.2768  48.6663 15.50589047  5129
STARLINK-35916          
1 66504U 25263V   25343.83335647  .00114543  00000+0  27169-2 0  9999
2 66504  43.0004 143.3824 0001423 276.3452 188.4005 15.40604915  5161
STARLINK-34766          
1 66505U 25263W   25343.83335647 -.00005274  00000+0 -84154-4 0  9991
2 66505  43.0007 142.0887 0001661 281.1189 350.3409 15.50569667  5168
STARLINK-34765          
1 66506U 25263X   25343.83335647 -.00003101  00000+0 -47076-4 0  9991
2 66506  43.0007 142.0848 0001536 279.4484 353.9309 15.50567004  5166
STARLINK-34767          
1 66507U 25263Y   25343.83335647 -.00008369  00000+0 -13707-3 0  9996
2 66507  43.0006 142.0743 0001459 278.8399 358.3789 15.50561646  5169
STARLINK-35608          
1 66508U 25263Z   25343.83335647 -.00080382  00000+0 -13768-2 0  9998
2 66508  43.0007 142.0605 0001574 274.7344   8.2215 15.50611498  5167
STARLINK-35598          
1 66509U 25263AA  25343.83335647 -.00015928  00000+0 -26631-3 0  9997
2 66509  43.0007 142.0390 0001452 273.8823  16.7523 15.50570461  5166
STARLINK-35600          
1 66510U 25263AB  25343.83335647 -.00004161  00000+0 -65175-4 0  9993
2 66510  43.0006 142.0539 0001451 275.1341   9.7540 15.50565812  5166
