CCSDS_OMM_VERS = 2.0
CREATION_DATE  = 
ORIGINATOR     = 

OBJECT_NAME    = STARLINK-35816
OBJECT_ID      = 2025-263Q
CENTER_NAME    = EARTH
REF_FRAME      = TEME
TIME_SYSTEM    = UTC
MEAN_ELEMENT_THEORY = SGP/SGP4

EPOCH          = 2025-12-09T20:00:01.999008
MEAN_MOTION    = 15.50707480
ECCENTRICITY   = .000157
INCLINATION    = 43.0007
RA_OF_ASC_NODE = 142.0991
ARG_OF_PERICENTER = 269.7148
MEAN_ANOMALY   = 357.8879

EPHEMERIS_TYPE = 0
CLASSIFICATION_TYPE = U
NORAD_CAT_ID   = 66499
ELEMENT_SET_NO = 999
REV_AT_EPOCH   = 516
BSTAR          = -.68386E-2
MEAN_MOTION_DOT = -.384235E-2
MEAN_MOTION_DDOT = 0

CCSDS_OMM_VERS = 2.0
CREATION_DATE  = 
ORIGINATOR     = 

OBJECT_NAME    = STARLINK-35894
OBJECT_ID      = 2025-263R
CENTER_NAME    = EARTH
REF_FRAME      = TEME
TIME_SYSTEM    = UTC
MEAN_ELEMENT_THEORY = SGP/SGP4

EPOCH          = 2025-12-09T20:00:01.999008
MEAN_MOTION    = 15.49632591
ECCENTRICITY   = .00012
INCLINATION    = 43.0007
RA_OF_ASC_NODE = 142.2145
ARG_OF_PERICENTER = 285.0380
MEAN_ANOMALY   = 295.4263

EPHEMERIS_TYPE = 0
CLASSIFICATION_TYPE = U
NORAD_CAT_ID   = 66500
ELEMENT_SET_NO = 999
REV_AT_EPOCH   = 516
BSTAR          = -.35512E-1
MEAN_MOTION_DOT = -.1787813E-1
MEAN_MOTION_DDOT = 0

CCSDS_OMM_VERS = 2.0
CREATION_DATE  = 
ORIGINATOR     = 

OBJECT_NAME    = STARLINK-35897
OBJECT_ID      = 2025-263S
CENTER_NAME    = EARTH
REF_FRAME      = TEME
TIME_SYSTEM    = UTC
MEAN_ELEMENT_THEORY = SGP/SGP4

EPOCH          = 2025-12-09T20:00:01.999008
MEAN_MOTION    = 15.50575169
ECCENTRICITY   = .0001555
INCLINATION    = 43.0006
RA_OF_ASC_NODE = 142.0944
ARG_OF_PERICENTER = 279.1513
MEAN_ANOMALY   = 350.3982

EPHEMERIS_TYPE = 0
CLASSIFICATION_TYPE = U
NORAD_CAT_ID   = 66501
ELEMENT_SET_NO = 999
REV_AT_EPOCH   = 516
BSTAR          = -.32288E-3
MEAN_MOTION_DOT = -.19234E-3
MEAN_MOTION_DDOT = 0

CCSDS_OMM_VERS = 2.0
CREATION_DATE  = 
ORIGINATOR     = 

OBJECT_NAME    = STARLINK-35922
OBJECT_ID      = 2025-263T
CENTER_NAME    = EARTH
REF_FRAME      = TEME
TIME_SYSTEM    = UTC
MEAN_ELEMENT_THEORY = SGP/SGP4

EPOCH          = 2025-12-09T20:00:01.999008
MEAN_MOTION    = 15.50554082
ECCENTRICITY   = .0001604
INCLINATION    = 43.0006
RA_OF_ASC_NODE = 142.0793
ARG_OF_PERICENTER = 275.1490
MEAN_ANOMALY   = 0.1540

EPHEMERIS_TYPE = 0
CLASSIFICATION_TYPE = U
NORAD_CAT_ID   = 66502
ELEMENT_SET_NO = 999
REV_AT_EPOCH   = 516
BSTAR          = .41549E-3
MEAN_MOTION_DOT = .24087E-3
MEAN_MOTION_DDOT = 0

CCSDS_OMM_VERS = 2.0
CREATION_DATE  = 
ORIGINATOR     = 

OBJECT_NAME    = STARLINK-35917
OBJECT_ID      = 2025-263U
CENTER_NAME    = EARTH
REF_FRAME      = TEME
TIME_SYSTEM    = UTC
MEAN_ELEMENT_THEORY = SGP/SGP4

EPOCH          = 2025-12-09T14:00:01.999872
MEAN_MOTION    = 15.50589047
ECCENTRICITY   = .00014441
INCLINATION    = 43.0005
RA_OF_ASC_NODE = 143.5315
ARG_OF_PERICENTER = 273.2768
MEAN_ANOMALY   = 48.6663

EPHEMERIS_TYPE = 0
CLASSIFICATION_TYPE = U
NORAD_CAT_ID   = 66503
ELEMENT_SET_NO = 999
REV_AT_EPOCH   = 512
BSTAR          = -.1175575E-2
MEAN_MOTION_DOT = -.68729E-3
MEAN_MOTION_DDOT = 0

CCSDS_OMM_VERS = 2.0
CREATION_DATE  = 
ORIGINATOR     = 

OBJECT_NAME    = STARLINK-35916
OBJECT_ID      = 2025-263V
CENTER_NAME    = EARTH
REF_FRAME      = TEME
TIME_SYSTEM    = UTC
MEAN_ELEMENT_THEORY = SGP/SGP4

EPOCH          = 2025-12-09T20:00:01.999008
MEAN_MOTION    = 15.40604915
ECCENTRICITY   = .0001423
INCLINATION    = 43.0004
RA_OF_ASC_NODE = 143.3824
ARG_OF_PERICENTER = 276.3452
MEAN_ANOMALY   = 188.4005

EPHEMERIS_TYPE = 0
CLASSIFICATION_TYPE = U
NORAD_CAT_ID   = 66504
ELEMENT_SET_NO = 999
REV_AT_EPOCH   = 516
BSTAR          = .27169E-2
MEAN_MOTION_DOT = .114543E-2
MEAN_MOTION_DDOT = 0

CCSDS_OMM_VERS = 2.0
CREATION_DATE  = 
ORIGINATOR     = 

OBJECT_NAME    = STARLINK-34766
OBJECT_ID      = 2025-263W
CENTER_NAME    = EARTH
REF_FRAME      = TEME
TIME_SYSTEM    = UTC
MEAN_ELEMENT_THEORY = SGP/SGP4

EPOCH          = 2025-12-09T20:00:01.999008
MEAN_MOTION    = 15.50569667
ECCENTRICITY   = .0001661
INCLINATION    = 43.0007
RA_OF_ASC_NODE = 142.0887
ARG_OF_PERICENTER = 281.1189
MEAN_ANOMALY   = 350.3409

EPHEMERIS_TYPE = 0
CLASSIFICATION_TYPE = U
NORAD_CAT_ID   = 66505
ELEMENT_SET_NO = 999
REV_AT_EPOCH   = 516
BSTAR          = -.84154E-4
MEAN_MOTION_DOT = -.5274E-4
MEAN_MOTION_DDOT = 0

CCSDS_OMM_VERS = 2.0
CREATION_DATE  = 
ORIGINATOR     = 

OBJECT_NAME    = STARLINK-34765
OBJECT_ID      = 2025-263X
CENTER_NAME    = EARTH
REF_FRAME      = TEME
TIME_SYSTEM    = UTC
MEAN_ELEMENT_THEORY = SGP/SGP4

EPOCH          = 2025-12-09T20:00:01.999008
MEAN_MOTION    = 15.50567004
ECCENTRICITY   = .0001536
INCLINATION    = 43.0007
RA_OF_ASC_NODE = 142.0848
ARG_OF_PERICENTER = 279.4484
MEAN_ANOMALY   = 353.9309

EPHEMERIS_TYPE = 0
CLASSIFICATION_TYPE = U
NORAD_CAT_ID   = 66506
ELEMENT_SET_NO = 999
REV_AT_EPOCH   = 516
BSTAR          = -.47076E-4
MEAN_MOTION_DOT = -.3101E-4
MEAN_MOTION_DDOT = 0

CCSDS_OMM_VERS = 2.0
CREATION_DATE  = 
ORIGINATOR     = 

OBJECT_NAME    = STARLINK-34767
OBJECT_ID      = 2025-263Y
CENTER_NAME    = EARTH
REF_FRAME      = TEME
TIME_SYSTEM    = UTC
MEAN_ELEMENT_THEORY = SGP/SGP4

EPOCH          = 2025-12-09T20:00:01.999008
MEAN_MOTION    = 15.50561646
ECCENTRICITY   = .0001459
INCLINATION    = 43.0006
RA_OF_ASC_NODE = 142.0743
ARG_OF_PERICENTER = 278.8399
MEAN_ANOMALY   = 358.3789

EPHEMERIS_TYPE = 0
CLASSIFICATION_TYPE = U
NORAD_CAT_ID   = 66507
ELEMENT_SET_NO = 999
REV_AT_EPOCH   = 516
BSTAR          = -.13707E-3
MEAN_MOTION_DOT = -.8369E-4
MEAN_MOTION_DDOT = 0

CCSDS_OMM_VERS = 2.0
CREATION_DATE  = 
ORIGINATOR     = 

OBJECT_NAME    = STARLINK-35608
OBJECT_ID      = 2025-263Z
CENTER_NAME    = EARTH
REF_FRAME      = TEME
TIME_SYSTEM    = UTC
MEAN_ELEMENT_THEORY = SGP/SGP4

EPOCH          = 2025-12-09T20:00:01.999008
MEAN_MOTION    = 15.50611498
ECCENTRICITY   = .0001574
INCLINATION    = 43.0007
RA_OF_ASC_NODE = 142.0605
ARG_OF_PERICENTER = 274.7344
MEAN_ANOMALY   = 8.2215

EPHEMERIS_TYPE = 0
CLASSIFICATION_TYPE = U
NORAD_CAT_ID   = 66508
ELEMENT_SET_NO = 999
REV_AT_EPOCH   = 516
BSTAR          = -.13768E-2
MEAN_MOTION_DOT = -.80382E-3
MEAN_MOTION_DDOT = 0

CCSDS_OMM_VERS = 2.0
CREATION_DATE  = 
ORIGINATOR     = 

OBJECT_NAME    = STARLINK-35598
OBJECT_ID      = 2025-263AA
CENTER_NAME    = EARTH
REF_FRAME      = TEME
TIME_SYSTEM    = UTC
MEAN_ELEMENT_THEORY = SGP/SGP4

EPOCH          = 2025-12-09T20:00:01.999008
MEAN_MOTION    = 15.50570461
ECCENTRICITY   = .0001452
INCLINATION    = 43.0007
RA_OF_ASC_NODE = 142.0390
ARG_OF_PERICENTER = 273.8823
MEAN_ANOMALY   = 16.7523

EPHEMERIS_TYPE = 0
CLASSIFICATION_TYPE = U
NORAD_CAT_ID   = 66509
ELEMENT_SET_NO = 999
REV_AT_EPOCH   = 516
BSTAR          = -.26631E-3
MEAN_MOTION_DOT = -.15928E-3
MEAN_MOTION_DDOT = 0

CCSDS_OMM_VERS = 2.0
CREATION_DATE  = 
ORIGINATOR     = 

OBJECT_NAME    = STARLINK-35600
OBJECT_ID      = 2025-263AB
CENTER_NAME    = EARTH
REF_FRAME      = TEME
TIME_SYSTEM    = UTC
MEAN_ELEMENT_THEORY = SGP/SGP4

EPOCH          = 2025-12-09T20:00:01.999008
MEAN_MOTION    = 15.50565812
ECCENTRICITY   = .0001451
INCLINATION    = 43.0006
RA_OF_ASC_NODE = 142.0539
ARG_OF_PERICENTER = 275.1341
MEAN_ANOMALY   = 9.7540

EPHEMERIS_TYPE = 0
CLASSIFICATION_TYPE = U
NORAD_CAT_ID   = 66510
ELEMENT_SET_NO = 999
REV_AT_EPOCH   = 516
BSTAR          = -.65175E-4
MEAN_MOTION_DOT = -.4161E-4
MEAN_MOTION_DDOT = 0

